STARLINK-1021
1 24726C 19074P   21325.11912042  .00004736  00000-0  31736-3 0  3253
2 24726  53.0549  32.7075 0001151  81.0193 346.5680 15.06386086    11
